{"type": "FeatureCollection", "features": [ {"type": "Feature", "properties": {"norad_id": 34911, "name": "COSMOS 2251 DEB", "group": "cosmos-2251-debris", "lat": 73.99057588605623, "lon": -57.35697875975596, "alt_km": 708.0259290839667, "timestamp": "2025-12-27T10:28:59.189636+00:00", "meta": {"OBJECT_NAME": "COSMOS 2251 DEB", "OBJECT_ID": "1993-036ADG", "EPOCH": "2025-12-26T01:52:35.742144", "MEAN_MOTION": 14.59390445, "ECCENTRICITY": 0.00842059, "INCLINATION": 74.0393, "RA_OF_ASC_NODE": 219.323, "ARG_OF_PERICENTER": 341.4186, "MEAN_ANOMALY": 171.635, "EPHEMERIS_TYPE": 0, "CLASSIFICATION_TYPE": "U", "NORAD_CAT_ID": 34911, "ELEMENT_SET_NO": 999, "REV_AT_EPOCH": 88781, "BSTAR": 0.00010844477, "MEAN_MOTION_DOT": 5.07e-06, "MEAN_MOTION_DDOT": 0}, "tle": {"line1": "1 34911U 93036ADG 25360.07819146  .00000507  00000+0  10844-3 0  9992", "line2": "2 34911  74.0393 219.3230 0084205 341.4186 171.6350 14.59390445887811"}}, "geometry": {"type": "Point", "coordinates": [-57.35697875975596, 73.99057588605623]}}, {"type": "Feature", "properties": {"norad_id": 34913, "name": "COSMOS 2251 DEB", "group": "cosmos-2251-debris", "lat": -40.95984012769327, "lon": 89.96152207977893, "alt_km": 793.662155359787, "timestamp": "2025-12-27T10:28:59.189646+00:00", "meta": {"OBJECT_NAME": "COSMOS 2251 DEB", "OBJECT_ID": "1993-036ADJ", "EPOCH": "2025-12-25T11:24:46.560096", "MEAN_MOTION": 14.34641195, "ECCENTRICITY": 0.0020873, "INCLINATION": 74.0281, "RA_OF_ASC_NODE": 259.159, "ARG_OF_PERICENTER": 5.6867, "MEAN_ANOMALY": 172.1148, "EPHEMERIS_TYPE": 0, "CLASSIFICATION_TYPE": "U", "NORAD_CAT_ID": 34913, "ELEMENT_SET_NO": 999, "REV_AT_EPOCH": 65370, "BSTAR": 4.8442e-05, "MEAN_MOTION_DOT": 1.11e-06, "MEAN_MOTION_DDOT": 0}, "tle": {"line1": "1 34913U 93036ADJ 25359.47553889  .00000111  00000+0  48442-4 0  9992", "line2": "2 34913  74.0281 259.1590 0020873   5.6867 172.1148 14.34641195653700"}}, "geometry": {"type": "Point", "coordinates": [89.96152207977893, -40.95984012769327]}}, {"type": "Feature", "properties": {"norad_id": 34918, "name": "COSMOS 2251 DEB", "group": "cosmos-2251-debris", "lat": -19.265349217321212, "lon": -80.14430801041985, "alt_km": 693.1175383541968, "timestamp": "2025-12-27T10:28:59.189656+00:00", "meta": {"OBJECT_NAME": "COSMOS 2251 DEB", "OBJECT_ID": "1993-036ADP", "EPOCH": "2025-12-25T13:22:56.208000", "MEAN_MOTION": 14.61407505, "ECCENTRICITY": 0.0032745, "INCLINATION": 74.0712, "RA_OF_ASC_NODE": 289.1692, "ARG_OF_PERICENTER": 254.3817, "MEAN_ANOMALY": 282.6516, "EPHEMERIS_TYPE": 0, "CLASSIFICATION_TYPE": "U", "NORAD_CAT_ID": 34918, "ELEMENT_SET_NO": 999, "REV_AT_EPOCH": 65523, "BSTAR": 0.0018027, "MEAN_MOTION_DOT": 8.971e-05, "MEAN_MOTION_DDOT": 0}, "tle": {"line1": "1 34918U 93036ADP 25359.55759500  .00008971  00000+0  18027-2 0  9990", "line2": "2 34918  74.0712 289.1692 0032745 254.3817 282.6516 14.61407505655230"}}, "geometry": {"type": "Point", "coordinates": [-80.14430801041985, -19.265349217321212]}}, {"type": "Feature", "properties": {"norad_id": 34924, "name": "COSMOS 2251 DEB", "group": "cosmos-2251-debris", "lat": -73.96038914447101, "lon": -23.097439525177816, "alt_km": 723.3342774127941, "timestamp": "2025-12-27T10:28:59.189666+00:00", "meta": {"OBJECT_NAME": "COSMOS 2251 DEB", "OBJECT_ID": "1993-036ADV", "EPOCH": "2025-12-27T04:27:37.675008", "MEAN_MOTION": 14.60153128, "ECCENTRICITY": 0.0053185, "INCLINATION": 74.0404, "RA_OF_ASC_NODE": 61.8841, "ARG_OF_PERICENTER": 142.7657, "MEAN_ANOMALY": 249.7261, "EPHEMERIS_TYPE": 0, "CLASSIFICATION_TYPE": "U", "NORAD_CAT_ID": 34924, "ELEMENT_SET_NO": 999, "REV_AT_EPOCH": 87934, "BSTAR": 0.00091456, "MEAN_MOTION_DOT": 4.464e-05, "MEAN_MOTION_DDOT": 0}, "tle": {"line1": "1 34924U 93036ADV 25361.18585272  .00004464  00000+0  91456-3 0  9993", "line2": "2 34924  74.0404  61.8841 0053185 142.7657 249.7261 14.60153128879348"}}, "geometry": {"type": "Point", "coordinates": [-23.097439525177816, -73.96038914447101]}}, {"type": "Feature", "properties": {"norad_id": 34944, "name": "COSMOS 2251 DEB", "group": "cosmos-2251-debris", "lat": 61.78503616221412, "lon": -7.415576870892041, "alt_km": 762.9862206820817, "timestamp": "2025-12-27T10:28:59.189676+00:00", "meta": {"OBJECT_NAME": "COSMOS 2251 DEB", "OBJECT_ID": "1993-036ADX", "EPOCH": "2025-12-26T23:46:57.347328", "MEAN_MOTION": 14.1421341, "ECCENTRICITY": 0.0220127, "INCLINATION": 73.7465, "RA_OF_ASC_NODE": 206.3261, "ARG_OF_PERICENTER": 51.4862, "MEAN_ANOMALY": 310.5788, "EPHEMERIS_TYPE": 0, "CLASSIFICATION_TYPE": "U", "NORAD_CAT_ID": 34944, "ELEMENT_SET_NO": 999, "REV_AT_EPOCH": 64284, "BSTAR": 0.00048728, "MEAN_MOTION_DOT": 1.146e-05, "MEAN_MOTION_DDOT": 0}, "tle": {"line1": "1 34944U 93036ADX 25360.99094152  .00001146  00000+0  48728-3 0  9993", "line2": "2 34944  73.7465 206.3261 0220127  51.4862 310.5788 14.14213410642845"}}, "geometry": {"type": "Point", "coordinates": [-7.415576870892041, 61.78503616221412]}}, {"type": "Feature", "properties": {"norad_id": 34946, "name": "COSMOS 2251 DEB", "group": "cosmos-2251-debris", "lat": -36.91809450324028, "lon": 146.38732920124275, "alt_km": 715.332031492896, "timestamp": "2025-12-27T10:28:59.189686+00:00", "meta": {"OBJECT_NAME": "COSMOS 2251 DEB", "OBJECT_ID": "1993-036ADZ", "EPOCH": "2025-12-25T14:47:39.171840", "MEAN_MOTION": 14.62063555, "ECCENTRICITY": 0.0048508, "INCLINATION": 74.0243, "RA_OF_ASC_NODE": 317.4443, "ARG_OF_PERICENTER": 90.5194, "MEAN_ANOMALY": 270.1532, "EPHEMERIS_TYPE": 0, "CLASSIFICATION_TYPE": "U", "NORAD_CAT_ID": 34946, "ELEMENT_SET_NO": 999, "REV_AT_EPOCH": 88397, "BSTAR": 0.00064563, "MEAN_MOTION_DOT": 3.267e-05, "MEAN_MOTION_DDOT": 0}, "tle": {"line1": "1 34946U 93036ADZ 25359.61642560  .00003267  00000+0  64563-3 0  9995", "line2": "2 34946  74.0243 317.4443 0048508  90.5194 270.1532 14.62063555883979"}}, "geometry": {"type": "Point", "coordinates": [146.38732920124275, -36.91809450324028]}}, {"type": "Feature", "properties": {"norad_id": 34949, "name": "COSMOS 2251 DEB", "group": "cosmos-2251-debris", "lat": 29.807769650122978, "lon": 90.39585656786333, "alt_km": 701.1369093371604, "timestamp": "2025-12-27T10:28:59.189696+00:00", "meta": {"OBJECT_NAME": "COSMOS 2251 DEB", "OBJECT_ID": "1993-036AEC", "EPOCH": "2025-12-25T22:30:24.026112", "MEAN_MOTION": 14.74089192, "ECCENTRICITY": 0.0079963, "INCLINATION": 74.0186, "RA_OF_ASC_NODE": 83.8736, "ARG_OF_PERICENTER": 226.4237, "MEAN_ANOMALY": 133.028, "EPHEMERIS_TYPE": 0, "CLASSIFICATION_TYPE": "U", "NORAD_CAT_ID": 34949, "ELEMENT_SET_NO": 999, "REV_AT_EPOCH": 88556, "BSTAR": 0.00052427, "MEAN_MOTION_DOT": 3.601e-05, "MEAN_MOTION_DDOT": 0}, "tle": {"line1": "1 34949U 93036AEC 25359.93777808  .00003601  00000+0  52427-3 0  9995", "line2": "2 34949  74.0186  83.8736 0079963 226.4237 133.0280 14.74089192885566"}}, "geometry": {"type": "Point", "coordinates": [90.39585656786333, 29.807769650122978]}}, {"type": "Feature", "properties": {"norad_id": 34953, "name": "COSMOS 2251 DEB", "group": "cosmos-2251-debris", "lat": 70.68920853065816, "lon": 124.66139116005029, "alt_km": 673.3750632225656, "timestamp": "2025-12-27T10:28:59.189706+00:00", "meta": {"OBJECT_NAME": "COSMOS 2251 DEB", "OBJECT_ID": "1993-036AEG", "EPOCH": "2025-12-26T18:28:07.279680", "MEAN_MOTION": 14.69090311, "ECCENTRICITY": 0.00588544, "INCLINATION": 74.0933, "RA_OF_ASC_NODE": 0.4208, "ARG_OF_PERICENTER": 348.5878, "MEAN_ANOMALY": 184.3184, "EPHEMERIS_TYPE": 0, "CLASSIFICATION_TYPE": "U", "NORAD_CAT_ID": 34953, "ELEMENT_SET_NO": 999, "REV_AT_EPOCH": 88334, "BSTAR": 0.0010446466, "MEAN_MOTION_DOT": 6.274e-05, "MEAN_MOTION_DDOT": 0}, "tle": {"line1": "1 34953U 93036AEG 25360.76952870  .00006274  00000+0  10446-2 0  9990", "line2": "2 34953  74.0933   0.4208 0058854 348.5878 184.3184 14.69090311883348"}}, "geometry": {"type": "Point", "coordinates": [124.66139116005029, 70.68920853065816]}}, {"type": "Feature", "properties": {"norad_id": 34955, "name": "COSMOS 2251 DEB", "group": "cosmos-2251-debris", "lat": 67.25752079990171, "lon": -6.470852582480428, "alt_km": 611.4332279057289, "timestamp": "2025-12-27T10:28:59.189716+00:00", "meta": {"OBJECT_NAME": "COSMOS 2251 DEB", "OBJECT_ID": "1993-036AEJ", "EPOCH": "2025-12-24T22:48:41.659488", "MEAN_MOTION": 15.00737642, "ECCENTRICITY": 0.00777361, "INCLINATION": 74.035, "RA_OF_ASC_NODE": 221.6616, "ARG_OF_PERICENTER": 288.4914, "MEAN_ANOMALY": 70.7836, "EPHEMERIS_TYPE": 0, "CLASSIFICATION_TYPE": "U", "NORAD_CAT_ID": 34955, "ELEMENT_SET_NO": 999, "REV_AT_EPOCH": 90217, "BSTAR": 0.00061621674, "MEAN_MOTION_DOT": 8.298e-05, "MEAN_MOTION_DDOT": 0}, "tle": {"line1": "1 34955U 93036AEJ 25358.95048217  .00008298  00000+0  61622-3 0  9992", "line2": "2 34955  74.0350 221.6616 0077736 288.4914  70.7836 15.00737642902172"}}, "geometry": {"type": "Point", "coordinates": [-6.470852582480428, 67.25752079990171]}}, {"type": "Feature", "properties": {"norad_id": 34962, "name": "COSMOS 2251 DEB", "group": "cosmos-2251-debris", "lat": -73.08031657381524, "lon": 95.61217241064317, "alt_km": 730.386689230063, "timestamp": "2025-12-27T10:28:59.189726+00:00", "meta": {"OBJECT_NAME": "COSMOS 2251 DEB", "OBJECT_ID": "1993-036AER", "EPOCH": "2025-12-26T18:16:25.471488", "MEAN_MOTION": 14.4656012, "ECCENTRICITY": 0.00189343, "INCLINATION": 74.0287, "RA_OF_ASC_NODE": 167.1714, "ARG_OF_PERICENTER": 278.9591, "MEAN_ANOMALY": 80.9424, "EPHEMERIS_TYPE": 0, "CLASSIFICATION_TYPE": "U", "NORAD_CAT_ID": 34962, "ELEMENT_SET_NO": 999, "REV_AT_EPOCH": 87781, "BSTAR": 0.00050029763, "MEAN_MOTION_DOT": 1.78e-05, "MEAN_MOTION_DDOT": 0}, "tle": {"line1": "1 34962U 93036AER 25360.76140592  .00001780  00000+0  50030-3 0  9991", "line2": "2 34962  74.0287 167.1714 0018934 278.9591  80.9424 14.46560120877814"}}, "geometry": {"type": "Point", "coordinates": [95.61217241064317, -73.08031657381524]}}]}